NUSAT-1 (FRESCO)        
1 41557U 16033B   22027.17660553  .00006046  00000+0  20262-3 0  9991
2 41557  97.3899 125.0720 0012742 154.2828 295.9158 15.31220713315746
BEESAT-4                
1 41619U 16040W   22026.69537007  .00006806  00000+0  25642-3 0  9992
2 41619  97.2406  81.3586 0008534 259.0549 100.9730 15.27365023299066
CAS-2T & KS-1Q          
1 41847U 16066G   22026.79030548  .00000321  00000+0  59587-4 0  9994
2 41847  98.5721  91.5042 0363600 273.4387  82.5283 14.38334557273981
NAYIF-1 (EO-88)         
1 42017U 17008BX  22027.11321397  .00006871  00000+0  23687-3 0  9990
2 42017  97.2901  95.6275 0006552  45.3808 314.7966 15.30299511275437
ZHUHAI-1 02 (CAS-4B)    
1 42759U 17034B   22027.14082051  .00001824  00000+0  12108-3 0  9995
2 42759  43.0179  30.8959 0006686 125.7841 318.6321 15.10778298254970
ZHUHAI-1 01 (CAS-4A)    
1 42761U 17034D   22027.05591980  .00001904  00000+0  12556-3 0  9990
2 42761  43.0180  30.2557 0007046 125.3526 336.3170 15.10866297254965
MAX VALIER SAT          
1 42778U 17036P   22027.12163117  .00003562  00000+0  14625-3 0  9996
2 42778  97.2279  73.1562 0013175 105.1726 255.0970 15.24761257255357
RADFXSAT (FOX-1B)       
1 43017U 17073E   22026.67161520  .00002630  00000+0  20624-3 0  9990
2 43017  97.6907 286.6418 0251258 291.8004  65.6648 14.80253360226138
FOX-1D (AO-92)          
1 43137U 18004AC  22026.76525151  .00004857  00000+0  18779-3 0  9993
2 43137  97.3853 103.4087 0009411 136.1259 224.0729 15.26656588224714
DIWATA-2B               
1 43678U 18084H   22027.14502429  .00000580  00000+0  63107-4 0  9992
2 43678  97.9484 158.9888 0010861  39.0435 321.1516 14.91895393176788
ES'HAIL 2               
1 43700U 18090A   22027.11935417  .00000152  00000+0  00000+0 0  9992
2 43700   0.0096  41.6081 0002226 303.2479 210.2640  1.00271521 11850
FOX-1CLIFF (AO-95)      
1 43770U 18099N   22026.86149819  .00001296  00000+0  12129-3 0  9991
2 43770  97.6403  96.8413 0015049  35.6534 324.5690 14.95701397171844
ITASAT 1                
1 43786U 18099AE  22026.73993973  .00001338  00000+0  12427-3 0  9990
2 43786  97.6429  97.5546 0015641  29.2686 330.9408 14.95946878171864
JY1SAT (JO-97)          
1 43803U 18099AX  22026.72901334  .00001378  00000+0  12684-3 0  9998
2 43803  97.6387  97.2809 0015401  28.5718 331.6345 14.96272175171870
UWE-4                   
1 43880U 18111E   22026.69513102  .00001834  00000+0  16282-3 0  9991
2 43880  97.6785 295.4979 0013976  77.6579 282.6206 14.97307246168485
NEXUS (FO-99)           
1 43937U 19003F   22026.66788578  .00005896  00000+0  22118-3 0  9990
2 43937  97.1511  65.7439 0020605 302.4118  57.5128 15.27394816168311
PSAT2 (NO-104)          
1 44354U 19036R   22026.44212801  .00035952  00000+0  42027-3 0  9994
2 44354  28.5283  70.4004 0288012 189.8833 169.6004 15.23545851142895
BRICSAT2 (NO-103)       
1 44355U 19036S   22027.12012549  .00136053 -19101-5  92103-3 0  9991
2 44355  28.5243 329.9861 0170857 352.7931   7.0230 15.56207073143942
JAISAT-1                
1 44419U 19038F   22027.12585884  .00004233  00000+0  22976-3 0  9997
2 44419  97.6187 356.5418 0018644 260.1103  99.8024 15.14958603141640
DUCHIFAT-3              
1 44854U 19089C   22026.90185947  .00001485  00000+0  12339-3 0  9995
2 44854  36.9639 218.7862 0006293 153.9178 206.1879 15.00019726116665
CAS-6 (TO-108)          
1 44881U 19093C   22027.09414795  .00000234  00000+0  36557-4 0  9997
2 44881  97.9060 108.2789 0013723 288.6983  71.2718 14.81549369113846
RS-44 & BREEZE-KM R/B   
1 44909U 19096E   22026.91534497  .00000005  00000+0 -18449-4 0  9990
2 44909  82.5238 324.3270 0216449 290.8223  66.9817 12.79712009 97404
ORBITAL FACTORY 2 (OF-2)
1 45113U 19071C   22026.42229260  .00012403  00000+0  32703-3 0  9998
2 45113  51.6417  34.4062 0011402  23.7238 336.4269 15.38824712111469
HUSKYSAT-1 (HO-107)     
1 45119U 19071J   22026.44417569  .00010041  00000+0  26885-3 0  9997
2 45119  51.6411  33.7883 0010927  20.7669 339.3757 15.38594342111465
BY70-2                  
1 45857U 20042B   22027.07608460  .00002940  00000+0  41459-3 0  9991
2 45857  97.9681 105.4292 0010740 205.1775 154.8896 14.77956972 84564
SALSAT                  
1 46495U 20068K   22026.79788454  .00000738  00000+0  58116-4 0  9990
2 46495  97.7156 328.2628 0017826  40.2406 320.0135 15.03805310 72892
BY70-3                  
1 46839U 20079N   22027.14019420  .00009065  00000+0  25747-3 0  9999
2 46839  97.2176 101.6021 0008077 117.5899 310.2133 15.36376214 68518
RADFXSAT-2 (AO-109)     
1 47311U 21002C   22026.88937306  .00004829  00000+0  21404-3 0  9993
2 47311  60.6845 174.1100 0026056 164.5596 195.6292 15.22916318 56885
UVSQ-SAT                
1 47438U 21006AB  22027.11301382  .00002893  00000+0  16264-3 0  9990
2 47438  97.4595  89.0609 0013581  50.3707 309.8721 15.13996230 55884
DIY-1 (ARDUIQUBE)       
1 47963U 21022AH  22026.70858108  .00007023  00000+0  44393-3 0  9992
2 47963  97.5449 290.1080 0016687 261.5565  98.3773 15.09231080 45541
XW-3 (CAS-9)            
1 50466U 21131B   22027.17685435  .00000018  00000+0  20532-4 0  9995
2 50466  98.5949 104.4308 0004360 193.5346 166.5739 14.38437531  4607
